{
    "links": {
        "self": "http://www.neowsapp.com/rest/v1/neo/3383668?api_key=iIulBulltgU6a56xZRHN4H3l9WmuAYTsLGpBGhQ2"
    },
    "id": "3383668",
    "neo_reference_id": "3383668",
    "name": "(2007 RG1)",
    "designation": "2007 RG1",
    "nasa_jpl_url": "http://ssd.jpl.nasa.gov/sbdb.cgi?sstr=3383668",
    "absolute_magnitude_h": 25.8,
    "estimated_diameter": {
        "kilometers": {
            "estimated_diameter_min": 0.0183888672,
            "estimated_diameter_max": 0.0411187571
        },
        "meters": {
            "estimated_diameter_min": 18.388867207,
            "estimated_diameter_max": 41.1187571041
        },
        "miles": {
            "estimated_diameter_min": 0.0114263088,
            "estimated_diameter_max": 0.0255500032
        },
        "feet": {
            "estimated_diameter_min": 60.3309310875,
            "estimated_diameter_max": 134.9040630575
        }
    },
    "is_potentially_hazardous_asteroid": false,
    "close_approach_data": [
        {
            "close_approach_date": "2007-09-03",
            "close_approach_date_full": "2007-Sep-03 22:33",
            "epoch_date_close_approach": 1188858780000,
            "relative_velocity": {
                "kilometers_per_second": "4.6616096207",
                "kilometers_per_hour": "16781.794634653",
                "miles_per_hour": "10427.5545606265"
            },
            "miss_distance": {
                "astronomical": "0.0487183626",
                "lunar": "18.9514430514",
                "kilometers": "7288163.274847662",
                "miles": "4528654.6624832556"
            },
            "orbiting_body": "Earth"
        }
    ],
    "orbital_data": {
        "orbit_id": "11",
        "orbit_determination_date": "2017-04-06 09:06:10",
        "first_observation_date": "2007-09-03",
        "last_observation_date": "2007-10-06",
        "data_arc_in_days": 33,
        "observations_used": 39,
        "orbit_uncertainty": "7",
        "minimum_orbit_intersection": ".0493138",
        "jupiter_tisserand_invariant": "4.201",
        "epoch_osculation": "2459000.5",
        "eccentricity": ".3623843778132521",
        "semi_major_axis": "1.650402850797171",
        "inclination": "3.177441846413076",
        "ascending_node_longitude": "323.1631836423362",
        "orbital_period": "774.432150846778",
        "perihelion_distance": "1.052322640569821",
        "perihelion_argument": "24.40868346031199",
        "aphelion_distance": "2.248483061024521",
        "perihelion_time": "2459000.535708539811",
        "mean_anomaly": "359.9834006448234",
        "mean_motion": ".4648567335516346",
        "equinox": "J2000",
        "orbit_class": {
            "orbit_class_type": "AMO",
            "orbit_class_description": "Near-Earth asteroid orbits similar to that of 1221 Amor",
            "orbit_class_range": "1.017 AU < q (perihelion) < 1.3 AU"
        }
    },
    "is_sentry_object": false
}